{
  "type": "FeatureCollection",
  "name": "National_Disaster_Habitations",
  "features": [
    {
      "type": "Feature",
      "id": "hab-mundakkai",
      "geometry": {
        "type": "Point",
        "coordinates": [
          76.195,
          11.548,
          1040
        ]
      },
      "properties": {
        "id": "hab-mundakkai",
        "name": "Mundakkai Tea Hamlet",
        "district": "Wayanad",
        "state": "Kerala",
        "region": "Western Ghats",
        "block": "Vythiri",
        "latitude": 11.548,
        "longitude": 76.195,
        "elevation": 1040,
        "population": 2150,
        "households": 490,
        "riskScore": 0.8497,
        "riskLevel": "CRITICAL",
        "vulnerabilityIndex": {
          "overall": 0.93,
          "level": "CRITICAL",
          "exposure": 0.97,
          "sensitivity": 0.92,
          "adaptiveCapacity": 0.15
        },
        "hazardExposure": [
          {
            "type": "landslide",
            "level": "CRITICAL",
            "score": 0.99,
            "contributors": [
              "Crown blowout landslide origin",
              "Steep estate tea plantation collapse"
            ]
          },
          {
            "type": "flood",
            "level": "HIGH",
            "score": 0.88,
            "contributors": [
              "Debris flow channel blockage and dam break"
            ]
          }
        ],
        "recommendedAction": "Immediate air and lifeline evacuation to Kalpetta Municipal Stadium",
        "nearestRelocationSite": "site-kalpetta-stadium"
      }
    },
    {
      "type": "Feature",
      "id": "hab-chooralmala",
      "geometry": {
        "type": "Point",
        "coordinates": [
          76.177,
          11.536,
          920
        ]
      },
      "properties": {
        "id": "hab-chooralmala",
        "name": "Chooralmala",
        "district": "Wayanad",
        "state": "Kerala",
        "region": "Western Ghats",
        "block": "Vythiri",
        "latitude": 11.536,
        "longitude": 76.177,
        "elevation": 920,
        "population": 3890,
        "households": 860,
        "riskScore": 0.8332,
        "riskLevel": "CRITICAL",
        "vulnerabilityIndex": {
          "overall": 0.91,
          "level": "CRITICAL",
          "exposure": 0.96,
          "sensitivity": 0.89,
          "adaptiveCapacity": 0.18
        },
        "hazardExposure": [
          {
            "type": "landslide",
            "level": "CRITICAL",
            "score": 0.98,
            "contributors": [
              "Vellarimala slope failure track",
              "572mm 48h extreme monsoon downpour",
              "Pebble & boulder slurry flow"
            ]
          },
          {
            "type": "flood",
            "level": "CRITICAL",
            "score": 0.92,
            "contributors": [
              "Iruvanipuzha river violent avulsion",
              "Bridge structural washouts"
            ]
          }
        ],
        "recommendedAction": "Urgent zero-hour total evacuation to Meppadi Community Complex",
        "nearestRelocationSite": "site-meppadi-campus"
      }
    },
    {
      "type": "Feature",
      "id": "hab-vellarmala",
      "geometry": {
        "type": "Point",
        "coordinates": [
          76.1873,
          11.5362,
          1040
        ]
      },
      "properties": {
        "id": "hab-vellarmala",
        "name": "Vellarmala / Punchirimattom",
        "district": "Wayanad",
        "state": "Kerala",
        "region": "Western Ghats",
        "block": "Vythiri",
        "latitude": 11.5362,
        "longitude": 76.1873,
        "elevation": 1040,
        "population": 850,
        "households": 192,
        "riskScore": 0.8133,
        "riskLevel": "CRITICAL",
        "vulnerabilityIndex": {
          "overall": 0.94,
          "level": "CRITICAL",
          "exposure": 0.96,
          "sensitivity": 0.92,
          "adaptiveCapacity": 0.12
        },
        "hazardExposure": [
          {
            "type": "landslide",
            "level": "CRITICAL",
            "score": 0.98,
            "contributors": [
              "Ground zero of 2024 Wayanad debris avalanche",
              "Massive boulder runout corridor",
              "Soil saturation > 98%"
            ]
          },
          {
            "type": "flood",
            "level": "HIGH",
            "score": 0.8,
            "contributors": [
              "Flash torrent sweeping through GVHSS school basin",
              "Complete riverbed alteration"
            ]
          }
        ],
        "recommendedAction": "Permanent relocation from red hazard zone to Kalpetta Safe Complex",
        "nearestRelocationSite": "site-kalpetta-stadium"
      }
    },
    {
      "type": "Feature",
      "id": "hab-chungthang",
      "geometry": {
        "type": "Point",
        "coordinates": [
          88.647,
          27.603,
          1790
        ]
      },
      "properties": {
        "id": "hab-chungthang",
        "name": "Chungthang Town",
        "district": "Mangan",
        "state": "Sikkim",
        "region": "Eastern Himalayas",
        "block": "Chungthang",
        "latitude": 27.603,
        "longitude": 88.647,
        "elevation": 1790,
        "population": 2650,
        "households": 560,
        "riskScore": 0.8088,
        "riskLevel": "CRITICAL",
        "vulnerabilityIndex": {
          "overall": 0.92,
          "level": "CRITICAL",
          "exposure": 0.97,
          "sensitivity": 0.9,
          "adaptiveCapacity": 0.16
        },
        "hazardExposure": [
          {
            "type": "glof",
            "level": "CRITICAL",
            "score": 0.98,
            "contributors": [
              "South Lhonak Glacial Lake outburst flood route",
              "Teesta-III Dam break downstream surge"
            ]
          },
          {
            "type": "landslide",
            "level": "HIGH",
            "score": 0.89,
            "contributors": [
              "Gorge wall collapse",
              "Sediment damming debris"
            ]
          }
        ],
        "recommendedAction": "Zero-hour high-altitude relocation to Mangan Sports Enclave",
        "nearestRelocationSite": "site-mangan-sports"
      }
    },
    {
      "type": "Feature",
      "id": "hab-noney-tupul",
      "geometry": {
        "type": "Point",
        "coordinates": [
          93.682,
          24.816,
          580
        ]
      },
      "properties": {
        "id": "hab-noney-tupul",
        "name": "Tupul Valley",
        "district": "Noney",
        "state": "Manipur",
        "region": "Northeastern Hills",
        "block": "Noney",
        "latitude": 24.816,
        "longitude": 93.682,
        "elevation": 580,
        "population": 2100,
        "households": 420,
        "riskScore": 0.7919,
        "riskLevel": "CRITICAL",
        "vulnerabilityIndex": {
          "overall": 0.9,
          "level": "CRITICAL",
          "exposure": 0.95,
          "sensitivity": 0.88,
          "adaptiveCapacity": 0.18
        },
        "hazardExposure": [
          {
            "type": "landslide",
            "level": "CRITICAL",
            "score": 0.97,
            "contributors": [
              "High cutting slope failure",
              "Ijei River damming creating inundation lake"
            ]
          },
          {
            "type": "flood",
            "level": "HIGH",
            "score": 0.87,
            "contributors": [
              "Breach risk of landslide debris dam"
            ]
          }
        ],
        "recommendedAction": "Urgent relocation along NH-37 to Imphal Khuman Lampak Enclave",
        "nearestRelocationSite": "site-imphal-complex"
      }
    },
    {
      "type": "Feature",
      "id": "hab-kainakary",
      "geometry": {
        "type": "Point",
        "coordinates": [
          76.3833,
          9.5083,
          -1.5
        ]
      },
      "properties": {
        "id": "hab-kainakary",
        "name": "Kainakary Polder Lowlands",
        "district": "Alappuzha",
        "state": "Kerala",
        "region": "Coastal & Backwaters",
        "block": "Champakulam",
        "latitude": 9.5083,
        "longitude": 76.3833,
        "elevation": -1.5,
        "population": 5400,
        "households": 1240,
        "riskScore": 0.7851,
        "riskLevel": "CRITICAL",
        "vulnerabilityIndex": {
          "overall": 0.87,
          "level": "CRITICAL",
          "exposure": 0.94,
          "sensitivity": 0.85,
          "adaptiveCapacity": 0.16
        },
        "hazardExposure": [
          {
            "type": "flood",
            "level": "CRITICAL",
            "score": 0.96,
            "contributors": [
              "Elevation 1.5m below mean sea level",
              "Vembanad Lake tidal backflow",
              "Pamba, Manimala & Achankovil river confluence discharge"
            ]
          }
        ],
        "recommendedAction": "Boat evacuation of vulnerable households to Alappuzha Cyclone & Flood Shelter",
        "nearestRelocationSite": "site-alappuzha-elevated"
      }
    },
    {
      "type": "Feature",
      "id": "hab-erasama-paradeep",
      "geometry": {
        "type": "Point",
        "coordinates": [
          86.62,
          20.15,
          4
        ]
      },
      "properties": {
        "id": "hab-erasama-paradeep",
        "name": "Erasama Coastal Belt",
        "district": "Jagatsinghpur",
        "state": "Odisha",
        "region": "Eastern Coastal Plains",
        "block": "Erasama",
        "latitude": 20.15,
        "longitude": 86.62,
        "elevation": 4,
        "population": 5100,
        "households": 1190,
        "riskScore": 0.7767,
        "riskLevel": "CRITICAL",
        "vulnerabilityIndex": {
          "overall": 0.87,
          "level": "CRITICAL",
          "exposure": 0.93,
          "sensitivity": 0.85,
          "adaptiveCapacity": 0.28
        },
        "hazardExposure": [
          {
            "type": "flood",
            "level": "CRITICAL",
            "score": 0.96,
            "contributors": [
              "Super Cyclone storm surge (>6m tidal wave)",
              "Saline marine inundation up to 15km inland"
            ]
          }
        ],
        "recommendedAction": "Pre-emptive evacuation to Erasama Central Disaster Refuge",
        "nearestRelocationSite": "site-jagatsinghpur-shelter"
      }
    },
    {
      "type": "Feature",
      "id": "hab-reni",
      "geometry": {
        "type": "Point",
        "coordinates": [
          79.702,
          30.49,
          2150
        ]
      },
      "properties": {
        "id": "hab-reni",
        "name": "Reni Village",
        "district": "Chamoli",
        "state": "Uttarakhand",
        "region": "Western Himalayas",
        "block": "Joshimath",
        "latitude": 30.49,
        "longitude": 79.702,
        "elevation": 2150,
        "population": 420,
        "households": 95,
        "riskScore": 0.7492,
        "riskLevel": "CRITICAL",
        "vulnerabilityIndex": {
          "overall": 0.89,
          "level": "CRITICAL",
          "exposure": 0.94,
          "sensitivity": 0.88,
          "adaptiveCapacity": 0.2
        },
        "hazardExposure": [
          {
            "type": "glof",
            "level": "CRITICAL",
            "score": 0.95,
            "contributors": [
              "Rishi Ganga catastrophic debris flood track",
              "Glacial lake breach trajectory"
            ]
          },
          {
            "type": "landslide",
            "level": "HIGH",
            "score": 0.88,
            "contributors": [
              "Unconsolidated scree slope",
              "Thermal permafrost degradation"
            ]
          },
          {
            "type": "flood",
            "level": "CRITICAL",
            "score": 0.9,
            "contributors": [
              "Steep gorge hydraulic damming"
            ]
          }
        ],
        "recommendedAction": "Mandatory zero-hour evacuation to Chamoli Stadium Safe Haven",
        "nearestRelocationSite": "site-chamoli-town"
      }
    },
    {
      "type": "Feature",
      "id": "hab-chungthang-core",
      "geometry": {
        "type": "Point",
        "coordinates": [
          88.6464,
          27.6039,
          1790
        ]
      },
      "properties": {
        "id": "hab-chungthang-core",
        "name": "Chungthang Confluence",
        "district": "Mangan",
        "state": "Sikkim",
        "region": "Eastern Himalayas",
        "block": "Chungthang",
        "latitude": 27.6039,
        "longitude": 88.6464,
        "elevation": 1790,
        "population": 2850,
        "households": 560,
        "riskScore": 0.737,
        "riskLevel": "CRITICAL",
        "vulnerabilityIndex": {
          "overall": 0.89,
          "level": "CRITICAL",
          "exposure": 0.95,
          "sensitivity": 0.88,
          "adaptiveCapacity": 0.15
        },
        "hazardExposure": [
          {
            "type": "glof",
            "level": "CRITICAL",
            "score": 0.97,
            "contributors": [
              "South Lhonak Glacial Lake Outburst path",
              "Teesta III dam breached in 2023",
              "Extreme kinetic boulder flow"
            ]
          },
          {
            "type": "flood",
            "level": "CRITICAL",
            "score": 0.91,
            "contributors": [
              "Lachen & Lachung Chu confluence surging over 15m"
            ]
          },
          {
            "type": "landslide",
            "level": "HIGH",
            "score": 0.82,
            "contributors": [
              "Steep slope toe undermining"
            ]
          }
        ],
        "recommendedAction": "Immediate high-plateau evacuation to Mangan Senior Secondary Safe Enclave",
        "nearestRelocationSite": "site-mangan-sports"
      }
    },
    {
      "type": "Feature",
      "id": "hab-majuli-kamalabari",
      "geometry": {
        "type": "Point",
        "coordinates": [
          94.1667,
          26.95,
          84
        ]
      },
      "properties": {
        "id": "hab-majuli-kamalabari",
        "name": "Kamalabari Riparian Belt",
        "district": "Majuli",
        "state": "Assam",
        "region": "Brahmaputra Valley",
        "block": "Kamalabari",
        "latitude": 26.95,
        "longitude": 94.1667,
        "elevation": 84,
        "population": 4800,
        "households": 980,
        "riskScore": 0.7106,
        "riskLevel": "CRITICAL",
        "vulnerabilityIndex": {
          "overall": 0.84,
          "level": "CRITICAL",
          "exposure": 0.9,
          "sensitivity": 0.82,
          "adaptiveCapacity": 0.2
        },
        "hazardExposure": [
          {
            "type": "flood",
            "level": "CRITICAL",
            "score": 0.94,
            "contributors": [
              "Brahmaputra river severe annual erosion",
              "Embankment breaching",
              "Island connectivity disruption"
            ]
          }
        ],
        "recommendedAction": "Elevated shelter evacuation via ferry corridor to Jorhat District Stadium Safe Enclave",
        "nearestRelocationSite": "site-jorhat-stadium"
      }
    },
    {
      "type": "Feature",
      "id": "hab-meppadi-chooralmala",
      "geometry": {
        "type": "Point",
        "coordinates": [
          76.1320079,
          11.5529455,
          874
        ]
      },
      "properties": {
        "id": "hab-meppadi-chooralmala",
        "name": "Meppadi / Chooralmala",
        "district": "Wayanad",
        "state": "Kerala",
        "region": "Western Ghats",
        "block": "Vythiri",
        "latitude": 11.5529455,
        "longitude": 76.1320079,
        "elevation": 874,
        "population": 4850,
        "households": 1120,
        "riskScore": 0.6921,
        "riskLevel": "CRITICAL",
        "vulnerabilityIndex": {
          "overall": 0.88,
          "level": "CRITICAL",
          "exposure": 0.94,
          "sensitivity": 0.85,
          "adaptiveCapacity": 0.22
        },
        "hazardExposure": [
          {
            "type": "landslide",
            "level": "CRITICAL",
            "score": 0.98,
            "contributors": [
              "Vellarimala steep tea-estate scarp",
              "Extreme monsoonal orographic rainfall (>350mm/24h)",
              "Debris flow channelization along Iruvanjippuzha"
            ]
          },
          {
            "type": "flood",
            "level": "HIGH",
            "score": 0.82,
            "contributors": [
              "Flash flood torrents in Chaliyar tributaries"
            ]
          },
          {
            "type": "earthquake",
            "level": "LOW",
            "score": 0.25,
            "contributors": [
              "Seismic Zone III (Peninsular shield fault)"
            ]
          }
        ],
        "recommendedAction": "Immediate evacuation along Meppadi-Kalpetta route to SKMJ High Ground Haven",
        "nearestRelocationSite": "site-wayanad-civil-station"
      }
    },
    {
      "type": "Feature",
      "id": "hab-silchar-meherpur",
      "geometry": {
        "type": "Point",
        "coordinates": [
          92.8,
          24.81,
          26
        ]
      },
      "properties": {
        "id": "hab-silchar-meherpur",
        "name": "Meherpur & Rangirkhari",
        "district": "Cachar",
        "state": "Assam",
        "region": "Barak Valley",
        "block": "Silchar",
        "latitude": 24.81,
        "longitude": 92.8,
        "elevation": 26,
        "population": 6200,
        "households": 1400,
        "riskScore": 0.687,
        "riskLevel": "CRITICAL",
        "vulnerabilityIndex": {
          "overall": 0.83,
          "level": "CRITICAL",
          "exposure": 0.89,
          "sensitivity": 0.81,
          "adaptiveCapacity": 0.3
        },
        "hazardExposure": [
          {
            "type": "flood",
            "level": "CRITICAL",
            "score": 0.93,
            "contributors": [
              "Barak River Bethukandi dyke breach track",
              "Catastrophic urban basin submergence (up to 3.5m deep)"
            ]
          }
        ],
        "recommendedAction": "Relocate families to Silchar Government Polytechnic Refuge",
        "nearestRelocationSite": "site-silchar-polytech"
      }
    },
    {
      "type": "Feature",
      "id": "hab-attamala",
      "geometry": {
        "type": "Point",
        "coordinates": [
          76.1685,
          11.5173,
          980
        ]
      },
      "properties": {
        "id": "hab-attamala",
        "name": "Attamala Hill Hamlet",
        "district": "Wayanad",
        "state": "Kerala",
        "region": "Western Ghats",
        "block": "Vythiri",
        "latitude": 11.5173,
        "longitude": 76.1685,
        "elevation": 980,
        "population": 1120,
        "households": 248,
        "riskScore": 0.6831,
        "riskLevel": "CRITICAL",
        "vulnerabilityIndex": {
          "overall": 0.88,
          "level": "CRITICAL",
          "exposure": 0.92,
          "sensitivity": 0.86,
          "adaptiveCapacity": 0.18
        },
        "hazardExposure": [
          {
            "type": "landslide",
            "level": "CRITICAL",
            "score": 0.94,
            "contributors": [
              "Active 2024 debris flow chute boundary",
              "Steep 36\u00b0 lateritic slope",
              "Extreme monsoonal cloudburst belt"
            ]
          },
          {
            "type": "flood",
            "level": "HIGH",
            "score": 0.72,
            "contributors": [
              "Iruvanji / Chaliyar upper tributary torrents",
              "Bridge severance isolating community"
            ]
          }
        ],
        "recommendedAction": "Immediate evacuation along Chooralmala ridge to Kalpetta Municipal Relief Hub",
        "nearestRelocationSite": "site-kalpetta-stadium"
      }
    },
    {
      "type": "Feature",
      "id": "hab-kavalappara",
      "geometry": {
        "type": "Point",
        "coordinates": [
          76.2417,
          11.4125,
          140
        ]
      },
      "properties": {
        "id": "hab-kavalappara",
        "name": "Kavalappara / Bhoothanam",
        "district": "Malappuram",
        "state": "Kerala",
        "region": "Western Ghats",
        "block": "Nilambur",
        "latitude": 11.4125,
        "longitude": 76.2417,
        "elevation": 140,
        "population": 2150,
        "households": 465,
        "riskScore": 0.6642,
        "riskLevel": "CRITICAL",
        "vulnerabilityIndex": {
          "overall": 0.86,
          "level": "CRITICAL",
          "exposure": 0.9,
          "sensitivity": 0.84,
          "adaptiveCapacity": 0.2
        },
        "hazardExposure": [
          {
            "type": "landslide",
            "level": "CRITICAL",
            "score": 0.95,
            "contributors": [
              "Site of 2019 catastrophic Muthappan Hill collapse",
              "Steep 38\u00b0 rubber-cultivated slopes",
              "Excessive pore-water pressure"
            ]
          },
          {
            "type": "flood",
            "level": "HIGH",
            "score": 0.74,
            "contributors": [
              "Chaliyar riverback backflow into lower valley settlements"
            ]
          }
        ],
        "recommendedAction": "Priority relocation of hill-base families to Nilambur Safe Enclave",
        "nearestRelocationSite": "site-kalpetta-stadium"
      }
    },
    {
      "type": "Feature",
      "id": "hab-puri-krushnaprasad",
      "geometry": {
        "type": "Point",
        "coordinates": [
          85.39,
          19.64,
          3.5
        ]
      },
      "properties": {
        "id": "hab-puri-krushnaprasad",
        "name": "Krushnaprasad (Chilika)",
        "district": "Puri",
        "state": "Odisha",
        "region": "Eastern Coastal Plains",
        "block": "Krushnaprasad",
        "latitude": 19.64,
        "longitude": 85.39,
        "elevation": 3.5,
        "population": 4400,
        "households": 960,
        "riskScore": 0.6567,
        "riskLevel": "CRITICAL",
        "vulnerabilityIndex": {
          "overall": 0.82,
          "level": "CRITICAL",
          "exposure": 0.88,
          "sensitivity": 0.8,
          "adaptiveCapacity": 0.31
        },
        "hazardExposure": [
          {
            "type": "flood",
            "level": "CRITICAL",
            "score": 0.91,
            "contributors": [
              "Chilika lagoon barrier breach",
              "Severe gale force storm tide"
            ]
          }
        ],
        "recommendedAction": "Transit via coastal highway to Puri OSDMA Cyclone Shelter",
        "nearestRelocationSite": "site-puri-mpcs"
      }
    },
    {
      "type": "Feature",
      "id": "hab-nedumudy",
      "geometry": {
        "type": "Point",
        "coordinates": [
          76.4,
          9.4333,
          -0.8
        ]
      },
      "properties": {
        "id": "hab-nedumudy",
        "name": "Nedumudy Delta Ward",
        "district": "Alappuzha",
        "state": "Kerala",
        "region": "Coastal & Backwaters",
        "block": "Champakulam",
        "latitude": 9.4333,
        "longitude": 76.4,
        "elevation": -0.8,
        "population": 3800,
        "households": 840,
        "riskScore": 0.6486,
        "riskLevel": "CRITICAL",
        "vulnerabilityIndex": {
          "overall": 0.81,
          "level": "CRITICAL",
          "exposure": 0.88,
          "sensitivity": 0.8,
          "adaptiveCapacity": 0.22
        },
        "hazardExposure": [
          {
            "type": "flood",
            "level": "CRITICAL",
            "score": 0.91,
            "contributors": [
              "Pamba river overflow over road embankments",
              "Chronic monsoonal submergence (>1.5m depth)"
            ]
          }
        ],
        "recommendedAction": "Deploy State Disaster Response boats to Alappuzha Model Refuge",
        "nearestRelocationSite": "site-alappuzha-relief"
      }
    },
    {
      "type": "Feature",
      "id": "hab-munnar-tea",
      "geometry": {
        "type": "Point",
        "coordinates": [
          77.0600915,
          10.0869959,
          1457
        ]
      },
      "properties": {
        "id": "hab-munnar-tea",
        "name": "Munnar Town & Pettimudi Slopes",
        "district": "Idukki",
        "state": "Kerala",
        "region": "Western Ghats",
        "block": "Devikulam",
        "latitude": 10.0869959,
        "longitude": 77.0600915,
        "elevation": 1457,
        "population": 5200,
        "households": 1250,
        "riskScore": 0.6454,
        "riskLevel": "CRITICAL",
        "vulnerabilityIndex": {
          "overall": 0.86,
          "level": "CRITICAL",
          "exposure": 0.9,
          "sensitivity": 0.82,
          "adaptiveCapacity": 0.25
        },
        "hazardExposure": [
          {
            "type": "landslide",
            "level": "CRITICAL",
            "score": 0.94,
            "contributors": [
              "Anamudi bedrock debris avalanche trajectory",
              "Perforated estate tea-slope saturation"
            ]
          },
          {
            "type": "flood",
            "level": "HIGH",
            "score": 0.85,
            "contributors": [
              "Muthirapuzha river bank overspill"
            ]
          },
          {
            "type": "earthquake",
            "level": "LOW",
            "score": 0.3,
            "contributors": [
              "Seismic Zone III"
            ]
          }
        ],
        "recommendedAction": "Evacuation to Munnar Higher Ground Sports Enclave",
        "nearestRelocationSite": "site-idukki-painavu"
      }
    },
    {
      "type": "Feature",
      "id": "hab-sohra-cherrapunji",
      "geometry": {
        "type": "Point",
        "coordinates": [
          91.73,
          25.27,
          1430
        ]
      },
      "properties": {
        "id": "hab-sohra-cherrapunji",
        "name": "Sohra (Cherrapunji) Rim",
        "district": "East Khasi Hills",
        "state": "Meghalaya",
        "region": "Northeastern Hills",
        "block": "Sohra",
        "latitude": 25.27,
        "longitude": 91.73,
        "elevation": 1430,
        "population": 3200,
        "households": 670,
        "riskScore": 0.6431,
        "riskLevel": "CRITICAL",
        "vulnerabilityIndex": {
          "overall": 0.83,
          "level": "CRITICAL",
          "exposure": 0.89,
          "sensitivity": 0.81,
          "adaptiveCapacity": 0.27
        },
        "hazardExposure": [
          {
            "type": "landslide",
            "level": "CRITICAL",
            "score": 0.91,
            "contributors": [
              "World-record intensity rainfall (>11,000mm annual)",
              "Limestone cliff collapse and canyon slides"
            ]
          },
          {
            "type": "flood",
            "level": "HIGH",
            "score": 0.82,
            "contributors": [
              "High-velocity gorge surface torrents"
            ]
          }
        ],
        "recommendedAction": "Move cliffside families to Sohra Sub-Divisional Complex",
        "nearestRelocationSite": "site-sohra-shelter"
      }
    },
    {
      "type": "Feature",
      "id": "hab-kedarnath-rambara",
      "geometry": {
        "type": "Point",
        "coordinates": [
          79.062,
          30.632,
          1980
        ]
      },
      "properties": {
        "id": "hab-kedarnath-rambara",
        "name": "Rambara / Gaurikund Corridor",
        "district": "Rudraprayag",
        "state": "Uttarakhand",
        "region": "Western Himalayas",
        "block": "Ukhimath",
        "latitude": 30.632,
        "longitude": 79.062,
        "elevation": 1980,
        "population": 1140,
        "households": 230,
        "riskScore": 0.6215,
        "riskLevel": "CRITICAL",
        "vulnerabilityIndex": {
          "overall": 0.81,
          "level": "CRITICAL",
          "exposure": 0.87,
          "sensitivity": 0.79,
          "adaptiveCapacity": 0.25
        },
        "hazardExposure": [
          {
            "type": "flood",
            "level": "CRITICAL",
            "score": 0.91,
            "contributors": [
              "Mandakini violent channel surge",
              "Chorabari moraine runoff path"
            ]
          },
          {
            "type": "landslide",
            "level": "HIGH",
            "score": 0.86,
            "contributors": [
              "Steep alluvial fan collapse",
              "Heavy precipitation funnel"
            ]
          }
        ],
        "recommendedAction": "Rapid descent to Tilwara Elevated Haven",
        "nearestRelocationSite": "site-tilwara"
      }
    },
    {
      "type": "Feature",
      "id": "hab-nilambur",
      "geometry": {
        "type": "Point",
        "coordinates": [
          76.2407387,
          11.2865083,
          37
        ]
      },
      "properties": {
        "id": "hab-nilambur",
        "name": "Nilambur & Kavalappara Tract",
        "district": "Malappuram",
        "state": "Kerala",
        "region": "Western Ghats Foothills",
        "block": "Nilambur",
        "latitude": 11.2865083,
        "longitude": 76.2407387,
        "elevation": 37,
        "population": 5800,
        "households": 1340,
        "riskScore": 0.6105,
        "riskLevel": "CRITICAL",
        "vulnerabilityIndex": {
          "overall": 0.84,
          "level": "CRITICAL",
          "exposure": 0.89,
          "sensitivity": 0.81,
          "adaptiveCapacity": 0.29
        },
        "hazardExposure": [
          {
            "type": "landslide",
            "level": "CRITICAL",
            "score": 0.92,
            "contributors": [
              "Muthappanpuzha hill breach",
              "Kavalappara historical debris flow footprint"
            ]
          },
          {
            "type": "flood",
            "level": "HIGH",
            "score": 0.86,
            "contributors": [
              "Chaliyar river overflow across low plains"
            ]
          },
          {
            "type": "earthquake",
            "level": "LOW",
            "score": 0.2,
            "contributors": [
              "Seismic Zone III"
            ]
          }
        ],
        "recommendedAction": "Immediate evacuation to Nilambur High School Flood Relief Campus",
        "nearestRelocationSite": "site-wayanad-civil-station"
      }
    },
    {
      "type": "Feature",
      "id": "hab-chalakudy",
      "geometry": {
        "type": "Point",
        "coordinates": [
          76.3333,
          10.3072,
          14
        ]
      },
      "properties": {
        "id": "hab-chalakudy",
        "name": "Chalakudy River Basin",
        "district": "Thrissur",
        "state": "Kerala",
        "region": "Central Plains",
        "block": "Chalakudy",
        "latitude": 10.3072,
        "longitude": 76.3333,
        "elevation": 14,
        "population": 8900,
        "households": 2050,
        "riskScore": 0.6078,
        "riskLevel": "CRITICAL",
        "vulnerabilityIndex": {
          "overall": 0.76,
          "level": "HIGH",
          "exposure": 0.86,
          "sensitivity": 0.74,
          "adaptiveCapacity": 0.3
        },
        "hazardExposure": [
          {
            "type": "flood",
            "level": "CRITICAL",
            "score": 0.93,
            "contributors": [
              "Sholayar & Poringalkuthu dam cascade discharge",
              "National Highway 544 cut-off point",
              "Water levels reached 1st floor in 2018"
            ]
          }
        ],
        "recommendedAction": "Evacuation to higher elevation college safe complexes",
        "nearestRelocationSite": "site-kalpetta-stadium"
      }
    },
    {
      "type": "Feature",
      "id": "hab-anantnag-bijbehara",
      "geometry": {
        "type": "Point",
        "coordinates": [
          75.105,
          33.795,
          1590
        ]
      },
      "properties": {
        "id": "hab-anantnag-bijbehara",
        "name": "Bijbehara & Sangam",
        "district": "Anantnag",
        "state": "Jammu & Kashmir",
        "region": "Kashmir Valley",
        "block": "Bijbehara",
        "latitude": 33.795,
        "longitude": 75.105,
        "elevation": 1590,
        "population": 4300,
        "households": 820,
        "riskScore": 0.6009,
        "riskLevel": "CRITICAL",
        "vulnerabilityIndex": {
          "overall": 0.8,
          "level": "CRITICAL",
          "exposure": 0.86,
          "sensitivity": 0.78,
          "adaptiveCapacity": 0.34
        },
        "hazardExposure": [
          {
            "type": "flood",
            "level": "CRITICAL",
            "score": 0.9,
            "contributors": [
              "Jhelum River gauge exceeding Danger Level by 4.8m",
              "South Kashmir basin convergence overflow"
            ]
          },
          {
            "type": "earthquake",
            "level": "HIGH",
            "score": 0.78,
            "contributors": [
              "Seismic Zone IV/V"
            ]
          }
        ],
        "recommendedAction": "Evacuate to Anantnag Degree College Disaster Camp on high terrace",
        "nearestRelocationSite": "site-anantnag-sports"
      }
    },
    {
      "type": "Feature",
      "id": "hab-kuttanad-champakulam",
      "geometry": {
        "type": "Point",
        "coordinates": [
          76.418,
          9.408,
          -1.5
        ]
      },
      "properties": {
        "id": "hab-kuttanad-champakulam",
        "name": "Champakulam / Kuttanad",
        "district": "Alappuzha",
        "state": "Kerala",
        "region": "Coastal Plains",
        "block": "Champakulam",
        "latitude": 9.408,
        "longitude": 76.418,
        "elevation": -1.5,
        "population": 4800,
        "households": 1120,
        "riskScore": 0.5951,
        "riskLevel": "CRITICAL",
        "vulnerabilityIndex": {
          "overall": 0.77,
          "level": "HIGH",
          "exposure": 0.84,
          "sensitivity": 0.75,
          "adaptiveCapacity": 0.38
        },
        "hazardExposure": [
          {
            "type": "flood",
            "level": "CRITICAL",
            "score": 0.92,
            "contributors": [
              "Below sea-level geographic basin",
              "Pamba & Achankovil monsoon discharge surge",
              "Tidal barrier holding capacity breach"
            ]
          }
        ],
        "recommendedAction": "Staged boat convoy transit to Alappuzha Elevated Stilt Shelter",
        "nearestRelocationSite": "site-alappuzha-elevated"
      }
    },
    {
      "type": "Feature",
      "id": "hab-joshimath",
      "geometry": {
        "type": "Point",
        "coordinates": [
          79.566,
          30.555,
          1890
        ]
      },
      "properties": {
        "id": "hab-joshimath",
        "name": "Joshimath Town",
        "district": "Chamoli",
        "state": "Uttarakhand",
        "region": "Western Himalayas",
        "block": "Joshimath",
        "latitude": 30.555,
        "longitude": 79.566,
        "elevation": 1890,
        "population": 4213,
        "households": 892,
        "riskScore": 0.5906,
        "riskLevel": "CRITICAL",
        "vulnerabilityIndex": {
          "overall": 0.84,
          "level": "CRITICAL",
          "exposure": 0.88,
          "sensitivity": 0.82,
          "adaptiveCapacity": 0.28
        },
        "hazardExposure": [
          {
            "type": "landslide",
            "level": "CRITICAL",
            "score": 0.92,
            "contributors": [
              "Active tectonic subsidence",
              "Overburden moraine creep",
              "Steep slope gradient (34\u00b0)"
            ]
          },
          {
            "type": "flood",
            "level": "HIGH",
            "score": 0.72,
            "contributors": [
              "Alaknanda toe erosion",
              "Drainage saturation anomaly"
            ]
          },
          {
            "type": "glof",
            "level": "MODERATE",
            "score": 0.58,
            "contributors": [
              "Upstream Dhauliganga glacial basins"
            ]
          },
          {
            "type": "earthquake",
            "level": "HIGH",
            "score": 0.75,
            "contributors": [
              "Seismic Zone V",
              "Main Central Thrust (MCT) proximity"
            ]
          }
        ],
        "recommendedAction": "Immediate phased relocation to Pipalkoti Safe Enclave",
        "nearestRelocationSite": "site-pipalkoti"
      }
    },
    {
      "type": "Feature",
      "id": "hab-koottickal",
      "geometry": {
        "type": "Point",
        "coordinates": [
          76.85,
          9.6833,
          110
        ]
      },
      "properties": {
        "id": "hab-koottickal",
        "name": "Koottickal Town & Plappally",
        "district": "Kottayam",
        "state": "Kerala",
        "region": "Western Ghats",
        "block": "Kanjirappally",
        "latitude": 9.6833,
        "longitude": 76.85,
        "elevation": 110,
        "population": 3450,
        "households": 780,
        "riskScore": 0.588,
        "riskLevel": "CRITICAL",
        "vulnerabilityIndex": {
          "overall": 0.8,
          "level": "CRITICAL",
          "exposure": 0.84,
          "sensitivity": 0.78,
          "adaptiveCapacity": 0.26
        },
        "hazardExposure": [
          {
            "type": "flood",
            "level": "CRITICAL",
            "score": 0.92,
            "contributors": [
              "Pullakayar river devastating flash flood corridor",
              "2021 cloudburst inundation zone",
              "Debris dam burst risk"
            ]
          },
          {
            "type": "landslide",
            "level": "HIGH",
            "score": 0.84,
            "contributors": [
              "High-angle hillside slips across rubber plantations",
              "Road cut failures"
            ]
          }
        ],
        "recommendedAction": "Stage early evacuation to Kottayam Collectorate High Ground Shelter",
        "nearestRelocationSite": "site-kottayam-collectorate"
      }
    },
    {
      "type": "Feature",
      "id": "hab-painavu",
      "geometry": {
        "type": "Point",
        "coordinates": [
          76.9446486,
          9.8540061,
          848
        ]
      },
      "properties": {
        "id": "hab-painavu",
        "name": "Painavu / Cheruthoni",
        "district": "Idukki",
        "state": "Kerala",
        "region": "Western Ghats",
        "block": "Idukki",
        "latitude": 9.8540061,
        "longitude": 76.9446486,
        "elevation": 848,
        "population": 3100,
        "households": 710,
        "riskScore": 0.5786,
        "riskLevel": "CRITICAL",
        "vulnerabilityIndex": {
          "overall": 0.82,
          "level": "CRITICAL",
          "exposure": 0.87,
          "sensitivity": 0.79,
          "adaptiveCapacity": 0.32
        },
        "hazardExposure": [
          {
            "type": "flood",
            "level": "CRITICAL",
            "score": 0.9,
            "contributors": [
              "Cheruthoni Dam spillway discharge surge",
              "Periyar river gorge overtopping"
            ]
          },
          {
            "type": "landslide",
            "level": "HIGH",
            "score": 0.86,
            "contributors": [
              "Steep reservoir peripheral slope cutting"
            ]
          },
          {
            "type": "earthquake",
            "level": "LOW",
            "score": 0.28,
            "contributors": [
              "Reservoir-induced seismicity (Zone III)"
            ]
          }
        ],
        "recommendedAction": "Stage-1 movement to Idukki District Stadium Safe Haven",
        "nearestRelocationSite": "site-idukki-painavu"
      }
    },
    {
      "type": "Feature",
      "id": "hab-singtam",
      "geometry": {
        "type": "Point",
        "coordinates": [
          88.498,
          27.234,
          420
        ]
      },
      "properties": {
        "id": "hab-singtam",
        "name": "Singtam Riverbank",
        "district": "Pakyong",
        "state": "Sikkim",
        "region": "Eastern Himalayas",
        "block": "Singtam",
        "latitude": 27.234,
        "longitude": 88.498,
        "elevation": 420,
        "population": 3200,
        "households": 710,
        "riskScore": 0.5737,
        "riskLevel": "CRITICAL",
        "vulnerabilityIndex": {
          "overall": 0.8,
          "level": "CRITICAL",
          "exposure": 0.85,
          "sensitivity": 0.78,
          "adaptiveCapacity": 0.32
        },
        "hazardExposure": [
          {
            "type": "flood",
            "level": "CRITICAL",
            "score": 0.9,
            "contributors": [
              "Teesta riverbed rise (6m silt deposit)",
              "Flash flood inundation"
            ]
          },
          {
            "type": "landslide",
            "level": "HIGH",
            "score": 0.8,
            "contributors": [
              "Toe erosion of highway embankment"
            ]
          }
        ],
        "recommendedAction": "Evacuate to Singtam Community Disaster Centre on high terrace",
        "nearestRelocationSite": "site-singtam-safehaven"
      }
    },
    {
      "type": "Feature",
      "id": "hab-amalapuram-island",
      "geometry": {
        "type": "Point",
        "coordinates": [
          81.835,
          16.48,
          3.2
        ]
      },
      "properties": {
        "id": "hab-amalapuram-island",
        "name": "Razole Island Hamlets",
        "district": "Dr. B.R. Ambedkar Konaseema",
        "state": "Andhra Pradesh",
        "region": "Eastern Coastal Plains",
        "block": "Razole",
        "latitude": 16.48,
        "longitude": 81.835,
        "elevation": 3.2,
        "population": 5200,
        "households": 1250,
        "riskScore": 0.5695,
        "riskLevel": "CRITICAL",
        "vulnerabilityIndex": {
          "overall": 0.84,
          "level": "CRITICAL",
          "exposure": 0.9,
          "sensitivity": 0.82,
          "adaptiveCapacity": 0.26
        },
        "hazardExposure": [
          {
            "type": "flood",
            "level": "CRITICAL",
            "score": 0.94,
            "contributors": [
              "Godavari estuary surge (4.5m wave crest)",
              "Low-lying delta bund breach risk"
            ]
          },
          {
            "type": "glof",
            "level": "LOW",
            "score": 0.1,
            "contributors": []
          }
        ],
        "recommendedAction": "Pre-emptive evacuation to Amalapuram Multi-Purpose Cyclone Shelter",
        "nearestRelocationSite": "site-amalapuram-mpcs"
      }
    },
    {
      "type": "Feature",
      "id": "hab-munnar-rajamalai",
      "geometry": {
        "type": "Point",
        "coordinates": [
          77.018,
          10.15,
          1650
        ]
      },
      "properties": {
        "id": "hab-munnar-rajamalai",
        "name": "Rajamalai / Pettimudi",
        "district": "Idukki",
        "state": "Kerala",
        "region": "Western Ghats",
        "block": "Devikulam",
        "latitude": 10.15,
        "longitude": 77.018,
        "elevation": 1650,
        "population": 1720,
        "households": 380,
        "riskScore": 0.5575,
        "riskLevel": "CRITICAL",
        "vulnerabilityIndex": {
          "overall": 0.82,
          "level": "CRITICAL",
          "exposure": 0.86,
          "sensitivity": 0.8,
          "adaptiveCapacity": 0.24
        },
        "hazardExposure": [
          {
            "type": "landslide",
            "level": "CRITICAL",
            "score": 0.9,
            "contributors": [
              "Steep granitic escarpment failure",
              "Gravel wash and lineament slip"
            ]
          },
          {
            "type": "flood",
            "level": "MODERATE",
            "score": 0.65,
            "contributors": [
              "Periyar tributary torrents"
            ]
          }
        ],
        "recommendedAction": "Priority relocation to Adimali High School Refuge",
        "nearestRelocationSite": "site-adimali-haven"
      }
    },
    {
      "type": "Feature",
      "id": "hab-kokkayar",
      "geometry": {
        "type": "Point",
        "coordinates": [
          76.9011,
          9.6642,
          195
        ]
      },
      "properties": {
        "id": "hab-kokkayar",
        "name": "Kokkayar Poovanchi Tract",
        "district": "Idukki",
        "state": "Kerala",
        "region": "Western Ghats",
        "block": "Peerumade",
        "latitude": 9.6642,
        "longitude": 76.9011,
        "elevation": 195,
        "population": 1980,
        "households": 420,
        "riskScore": 0.552,
        "riskLevel": "CRITICAL",
        "vulnerabilityIndex": {
          "overall": 0.79,
          "level": "HIGH",
          "exposure": 0.83,
          "sensitivity": 0.76,
          "adaptiveCapacity": 0.25
        },
        "hazardExposure": [
          {
            "type": "landslide",
            "level": "CRITICAL",
            "score": 0.89,
            "contributors": [
              "Multiple debris flows triggered by extreme rainfall",
              "Steep gully incision",
              "Granitic saprolite failure"
            ]
          },
          {
            "type": "flood",
            "level": "HIGH",
            "score": 0.78,
            "contributors": [
              "Kokkayar stream flash torrent inundating settlements"
            ]
          }
        ],
        "recommendedAction": "Evacuation to Adimali Government High School Complex",
        "nearestRelocationSite": "site-adimali-haven"
      }
    },
    {
      "type": "Feature",
      "id": "hab-kullu-old-manali",
      "geometry": {
        "type": "Point",
        "coordinates": [
          77.182,
          32.251,
          2050
        ]
      },
      "properties": {
        "id": "hab-kullu-old-manali",
        "name": "Old Manali & Aleo",
        "district": "Kullu",
        "state": "Himachal Pradesh",
        "region": "Northern Himalayas",
        "block": "Manali",
        "latitude": 32.251,
        "longitude": 77.182,
        "elevation": 2050,
        "population": 3450,
        "households": 780,
        "riskScore": 0.5341,
        "riskLevel": "CRITICAL",
        "vulnerabilityIndex": {
          "overall": 0.78,
          "level": "HIGH",
          "exposure": 0.83,
          "sensitivity": 0.75,
          "adaptiveCapacity": 0.36
        },
        "hazardExposure": [
          {
            "type": "flood",
            "level": "HIGH",
            "score": 0.87,
            "contributors": [
              "Beas River flash surge",
              "Manalsu Nala cloudburst overflow"
            ]
          },
          {
            "type": "landslide",
            "level": "HIGH",
            "score": 0.79,
            "contributors": [
              "Steep slope debris movement",
              "High tourist influx vulnerability"
            ]
          }
        ],
        "recommendedAction": "Evacuate riverbank settlements to Dhalpur Disaster Enclave",
        "nearestRelocationSite": "site-kullu-dhalpur"
      }
    },
    {
      "type": "Feature",
      "id": "hab-puthumala",
      "geometry": {
        "type": "Point",
        "coordinates": [
          76.1667,
          11.5333,
          890
        ]
      },
      "properties": {
        "id": "hab-puthumala",
        "name": "Puthumala Hamlet",
        "district": "Wayanad",
        "state": "Kerala",
        "region": "Western Ghats",
        "block": "Meppadi",
        "latitude": 11.5333,
        "longitude": 76.1667,
        "elevation": 890,
        "population": 1420,
        "households": 310,
        "riskScore": 0.5336,
        "riskLevel": "CRITICAL",
        "vulnerabilityIndex": {
          "overall": 0.82,
          "level": "CRITICAL",
          "exposure": 0.85,
          "sensitivity": 0.79,
          "adaptiveCapacity": 0.22
        },
        "hazardExposure": [
          {
            "type": "landslide",
            "level": "CRITICAL",
            "score": 0.91,
            "contributors": [
              "2019 massive debris avalanche scar reactivation",
              "Steep tea plantation slopes",
              "Sub-surface piping"
            ]
          },
          {
            "type": "flood",
            "level": "MODERATE",
            "score": 0.58,
            "contributors": [
              "Downstream mudflow deposits choking natural drain"
            ]
          }
        ],
        "recommendedAction": "Evacuate high-slope households to St. Joseph Community Haven",
        "nearestRelocationSite": "site-meppadi-campus"
      }
    },
    {
      "type": "Feature",
      "id": "hab-kohima-south",
      "geometry": {
        "type": "Point",
        "coordinates": [
          94.105,
          25.66,
          1440
        ]
      },
      "properties": {
        "id": "hab-kohima-south",
        "name": "Kohima South Ridge",
        "district": "Kohima",
        "state": "Nagaland",
        "region": "Northeastern Hills",
        "block": "Kohima",
        "latitude": 25.66,
        "longitude": 94.105,
        "elevation": 1440,
        "population": 3500,
        "households": 710,
        "riskScore": 0.5298,
        "riskLevel": "CRITICAL",
        "vulnerabilityIndex": {
          "overall": 0.77,
          "level": "HIGH",
          "exposure": 0.82,
          "sensitivity": 0.76,
          "adaptiveCapacity": 0.33
        },
        "hazardExposure": [
          {
            "type": "landslide",
            "level": "HIGH",
            "score": 0.85,
            "contributors": [
              "Shale formation progressive creeping slump",
              "Infiltration of monsoon runoff"
            ]
          },
          {
            "type": "earthquake",
            "level": "HIGH",
            "score": 0.79,
            "contributors": [
              "Indo-Burma wedge Seismic Zone V"
            ]
          }
        ],
        "recommendedAction": "Relocate sinking zone households to Indira Gandhi Stadium Haven",
        "nearestRelocationSite": "site-kohima-stadium"
      }
    },
    {
      "type": "Feature",
      "id": "hab-kullu-raison",
      "geometry": {
        "type": "Point",
        "coordinates": [
          77.1095,
          31.9579,
          1250
        ]
      },
      "properties": {
        "id": "hab-kullu-raison",
        "name": "Raison / Beas Riverfront",
        "district": "Kullu",
        "state": "Himachal Pradesh",
        "region": "Western Himalayas",
        "block": "Kullu",
        "latitude": 31.9579,
        "longitude": 77.1095,
        "elevation": 1250,
        "population": 1640,
        "households": 340,
        "riskScore": 0.5256,
        "riskLevel": "CRITICAL",
        "vulnerabilityIndex": {
          "overall": 0.77,
          "level": "HIGH",
          "exposure": 0.82,
          "sensitivity": 0.75,
          "adaptiveCapacity": 0.28
        },
        "hazardExposure": [
          {
            "type": "flood",
            "level": "CRITICAL",
            "score": 0.9,
            "contributors": [
              "Beas river 2023 flash flood path",
              "High-velocity boulder transport",
              "Toe erosion"
            ]
          },
          {
            "type": "landslide",
            "level": "HIGH",
            "score": 0.78,
            "contributors": [
              "Over-steepened road embankment collapses"
            ]
          }
        ],
        "recommendedAction": "Relocate along NH-3 to Dhalpur Ground Safe Enclave",
        "nearestRelocationSite": "site-kullu-dhalpur"
      }
    },
    {
      "type": "Feature",
      "id": "hab-bheemunipatnam",
      "geometry": {
        "type": "Point",
        "coordinates": [
          83.45,
          17.89,
          6
        ]
      },
      "properties": {
        "id": "hab-bheemunipatnam",
        "name": "Bheemunipatnam Coast",
        "district": "Visakhapatnam",
        "state": "Andhra Pradesh",
        "region": "Eastern Coastal Plains",
        "block": "Bheemunipatnam",
        "latitude": 17.89,
        "longitude": 83.45,
        "elevation": 6,
        "population": 4300,
        "households": 980,
        "riskScore": 0.5164,
        "riskLevel": "CRITICAL",
        "vulnerabilityIndex": {
          "overall": 0.75,
          "level": "HIGH",
          "exposure": 0.81,
          "sensitivity": 0.72,
          "adaptiveCapacity": 0.38
        },
        "hazardExposure": [
          {
            "type": "flood",
            "level": "HIGH",
            "score": 0.85,
            "contributors": [
              "Very Severe Cyclonic Storm landfall zone",
              "High-energy storm tide breach"
            ]
          }
        ],
        "recommendedAction": "Transit coastal population to Swarna Bharathi Indoor Stadium",
        "nearestRelocationSite": "site-vizag-indoor"
      }
    },
    {
      "type": "Feature",
      "id": "hab-vythiri",
      "geometry": {
        "type": "Point",
        "coordinates": [
          76.038922,
          11.5560885,
          752
        ]
      },
      "properties": {
        "id": "hab-vythiri",
        "name": "Vythiri Valley",
        "district": "Wayanad",
        "state": "Kerala",
        "region": "Western Ghats",
        "block": "Vythiri",
        "latitude": 11.5560885,
        "longitude": 76.038922,
        "elevation": 752,
        "population": 3600,
        "households": 790,
        "riskScore": 0.5036,
        "riskLevel": "CRITICAL",
        "vulnerabilityIndex": {
          "overall": 0.79,
          "level": "HIGH",
          "exposure": 0.85,
          "sensitivity": 0.76,
          "adaptiveCapacity": 0.35
        },
        "hazardExposure": [
          {
            "type": "landslide",
            "level": "HIGH",
            "score": 0.88,
            "contributors": [
              "High-slope escarpment slumping",
              "Pundari riverbed pore-pressure buildup"
            ]
          },
          {
            "type": "flood",
            "level": "HIGH",
            "score": 0.74,
            "contributors": [
              "Ghat pass runoff convergence"
            ]
          },
          {
            "type": "earthquake",
            "level": "LOW",
            "score": 0.2,
            "contributors": [
              "Seismic Zone III"
            ]
          }
        ],
        "recommendedAction": "Preemptive relocation of valley-floor families to Kalpetta Safe Complex",
        "nearestRelocationSite": "site-wayanad-civil-station"
      }
    },
    {
      "type": "Feature",
      "id": "hab-mandi-pandoh",
      "geometry": {
        "type": "Point",
        "coordinates": [
          77.05,
          31.67,
          890
        ]
      },
      "properties": {
        "id": "hab-mandi-pandoh",
        "name": "Pandoh Slopes & Aut",
        "district": "Mandi",
        "state": "Himachal Pradesh",
        "region": "Northern Himalayas",
        "block": "Mandi Sadar",
        "latitude": 31.67,
        "longitude": 77.05,
        "elevation": 890,
        "population": 2900,
        "households": 620,
        "riskScore": 0.4715,
        "riskLevel": "HIGH",
        "vulnerabilityIndex": {
          "overall": 0.74,
          "level": "HIGH",
          "exposure": 0.78,
          "sensitivity": 0.72,
          "adaptiveCapacity": 0.35
        },
        "hazardExposure": [
          {
            "type": "landslide",
            "level": "HIGH",
            "score": 0.83,
            "contributors": [
              "Hillside cutting destabilization",
              "Saturated mica-schist sliding"
            ]
          },
          {
            "type": "flood",
            "level": "HIGH",
            "score": 0.8,
            "contributors": [
              "Pandoh reservoir discharge overflow",
              "Beas flood channel"
            ]
          }
        ],
        "recommendedAction": "Relocate low-lying households to Paddal Safe Complex",
        "nearestRelocationSite": "site-mandi-paddal"
      }
    },
    {
      "type": "Feature",
      "id": "hab-marwari",
      "geometry": {
        "type": "Point",
        "coordinates": [
          79.558,
          30.542,
          1750
        ]
      },
      "properties": {
        "id": "hab-marwari",
        "name": "Marwari / Sunil",
        "district": "Chamoli",
        "state": "Uttarakhand",
        "region": "Western Himalayas",
        "block": "Joshimath",
        "latitude": 30.542,
        "longitude": 79.558,
        "elevation": 1750,
        "population": 1850,
        "households": 410,
        "riskScore": 0.4526,
        "riskLevel": "HIGH",
        "vulnerabilityIndex": {
          "overall": 0.76,
          "level": "HIGH",
          "exposure": 0.8,
          "sensitivity": 0.74,
          "adaptiveCapacity": 0.32
        },
        "hazardExposure": [
          {
            "type": "landslide",
            "level": "HIGH",
            "score": 0.84,
            "contributors": [
              "Alaknanda riverbed scouring",
              "Percolation crack acceleration"
            ]
          },
          {
            "type": "flood",
            "level": "MODERATE",
            "score": 0.62,
            "contributors": [
              "Flash flood canyon proximity"
            ]
          },
          {
            "type": "earthquake",
            "level": "HIGH",
            "score": 0.75,
            "contributors": [
              "Seismic Zone V"
            ]
          }
        ],
        "recommendedAction": "Stage-1 evacuation transit via NH-7 lifeline",
        "nearestRelocationSite": "site-pipalkoti"
      }
    },
    {
      "type": "Feature",
      "id": "hab-ranni",
      "geometry": {
        "type": "Point",
        "coordinates": [
          76.78,
          9.38,
          18
        ]
      },
      "properties": {
        "id": "hab-ranni",
        "name": "Ranni Riverfront",
        "district": "Pathanamthitta",
        "state": "Kerala",
        "region": "Western Ghats Foothills",
        "block": "Ranni",
        "latitude": 9.38,
        "longitude": 76.78,
        "elevation": 18,
        "population": 6100,
        "households": 1390,
        "riskScore": 0.4405,
        "riskLevel": "HIGH",
        "vulnerabilityIndex": {
          "overall": 0.78,
          "level": "HIGH",
          "exposure": 0.85,
          "sensitivity": 0.77,
          "adaptiveCapacity": 0.28
        },
        "hazardExposure": [
          {
            "type": "flood",
            "level": "CRITICAL",
            "score": 0.94,
            "contributors": [
              "Pamba river upstream dams (Kakki/Anathode) spillway discharge",
              "Submerged town commercial center during 2018 mega flood"
            ]
          },
          {
            "type": "landslide",
            "level": "MODERATE",
            "score": 0.45,
            "contributors": [
              "Perunad and Vadasserikkara hill slope cuts"
            ]
          }
        ],
        "recommendedAction": "Stage evacuation of riverside shops and homes to higher terrace relief camps",
        "nearestRelocationSite": "site-kottayam-collectorate"
      }
    },
    {
      "type": "Feature",
      "id": "hab-haripad-kuttanad",
      "geometry": {
        "type": "Point",
        "coordinates": [
          76.4562679,
          9.2844934,
          9
        ]
      },
      "properties": {
        "id": "hab-haripad-kuttanad",
        "name": "Haripad Delta (Lower Kuttanad)",
        "district": "Alappuzha",
        "state": "Kerala",
        "region": "Coastal & Backwaters",
        "block": "Haripad",
        "latitude": 9.2844934,
        "longitude": 76.4562679,
        "elevation": 9,
        "population": 7100,
        "households": 1680,
        "riskScore": 0.3123,
        "riskLevel": "MODERATE",
        "vulnerabilityIndex": {
          "overall": 0.83,
          "level": "CRITICAL",
          "exposure": 0.95,
          "sensitivity": 0.8,
          "adaptiveCapacity": 0.3
        },
        "hazardExposure": [
          {
            "type": "flood",
            "level": "CRITICAL",
            "score": 0.95,
            "contributors": [
              "Pamba & Achankovil river delta convergence",
              "Continuous 1.8m sub-surface waterlogging"
            ]
          },
          {
            "type": "landslide",
            "level": "LOW",
            "score": 0.02,
            "contributors": [
              "Delta alluvial flat"
            ]
          },
          {
            "type": "earthquake",
            "level": "LOW",
            "score": 0.15,
            "contributors": [
              "Seismic Zone III"
            ]
          }
        ],
        "recommendedAction": "Relocation to Alappuzha Model College Elevated Cyclone Shelter",
        "nearestRelocationSite": "site-alappuzha-relief"
      }
    },
    {
      "type": "Feature",
      "id": "hab-kumarakom",
      "geometry": {
        "type": "Point",
        "coordinates": [
          76.4305378,
          9.5960545,
          7
        ]
      },
      "properties": {
        "id": "hab-kumarakom",
        "name": "Kumarakom Inland Basin",
        "district": "Kottayam",
        "state": "Kerala",
        "region": "Coastal & Backwaters",
        "block": "Kottayam",
        "latitude": 9.5960545,
        "longitude": 76.4305378,
        "elevation": 7,
        "population": 6400,
        "households": 1520,
        "riskScore": 0.2969,
        "riskLevel": "MODERATE",
        "vulnerabilityIndex": {
          "overall": 0.8,
          "level": "HIGH",
          "exposure": 0.92,
          "sensitivity": 0.78,
          "adaptiveCapacity": 0.38
        },
        "hazardExposure": [
          {
            "type": "flood",
            "level": "CRITICAL",
            "score": 0.93,
            "contributors": [
              "Below sea-level Vembanad lake inundation",
              "Meenachil river drainage blockade during high tide"
            ]
          },
          {
            "type": "landslide",
            "level": "LOW",
            "score": 0.05,
            "contributors": [
              "Negligible slope"
            ]
          },
          {
            "type": "earthquake",
            "level": "LOW",
            "score": 0.15,
            "contributors": [
              "Seismic Zone III"
            ]
          }
        ],
        "recommendedAction": "Boat & amphibious transport to Kottayam Collectorate High Ridge",
        "nearestRelocationSite": "site-kottayam-collectorate"
      }
    },
    {
      "type": "Feature",
      "id": "hab-aluva",
      "geometry": {
        "type": "Point",
        "coordinates": [
          76.3568532,
          10.1077682,
          14
        ]
      },
      "properties": {
        "id": "hab-aluva",
        "name": "Aluva Riverbed Basin",
        "district": "Ernakulam",
        "state": "Kerala",
        "region": "Coastal Plains",
        "block": "Aluva",
        "latitude": 10.1077682,
        "longitude": 76.3568532,
        "elevation": 14,
        "population": 8900,
        "households": 2100,
        "riskScore": 0.2835,
        "riskLevel": "MODERATE",
        "vulnerabilityIndex": {
          "overall": 0.76,
          "level": "HIGH",
          "exposure": 0.93,
          "sensitivity": 0.72,
          "adaptiveCapacity": 0.45
        },
        "hazardExposure": [
          {
            "type": "flood",
            "level": "CRITICAL",
            "score": 0.91,
            "contributors": [
              "Periyar river direct downstream discharge from Idamalayar & Idukki reservoirs"
            ]
          },
          {
            "type": "landslide",
            "level": "LOW",
            "score": 0.05,
            "contributors": [
              "Low-lying alluvial plain"
            ]
          },
          {
            "type": "earthquake",
            "level": "LOW",
            "score": 0.2,
            "contributors": [
              "Seismic Zone III"
            ]
          }
        ],
        "recommendedAction": "Relocation to Aluva UC College Elevated Campus",
        "nearestRelocationSite": "site-kottayam-collectorate"
      }
    }
  ]
}